[{"OBJECT_NAME":"SL-8 R/B","OBJECT_ID":"1988-053B","EPOCH":"2026-04-02T07:16:24.526560","MEAN_MOTION":14.38932565,"ECCENTRICITY":0.00214137,"INCLINATION":74.0465,"RA_OF_ASC_NODE":68.9354,"ARG_OF_PERICENTER":245.0499,"MEAN_ANOMALY":218.8143,"EPHEMERIS_TYPE":0,"CLASSIFICATION_TYPE":"U","NORAD_CAT_ID":19257,"ELEMENT_SET_NO":999,"REV_AT_EPOCH":97999,"BSTAR":0.00012765416,"MEAN_MOTION_DOT":3.68e-6,"MEAN_MOTION_DDOT":0},{"OBJECT_NAME":"COSMOS 1975","OBJECT_ID":"1988-093A","EPOCH":"2026-04-02T00:50:03.881760","MEAN_MOTION":15.2839849,"ECCENTRICITY":0.00134253,"INCLINATION":82.5154,"RA_OF_ASC_NODE":94.2382,"ARG_OF_PERICENTER":89.7555,"MEAN_ANOMALY":270.5222,"EPHEMERIS_TYPE":0,"CLASSIFICATION_TYPE":"U","NORAD_CAT_ID":19573,"ELEMENT_SET_NO":999,"REV_AT_EPOCH":2297,"BSTAR":0.00026924443,"MEAN_MOTION_DOT":7.495e-5,"MEAN_MOTION_DDOT":0},{"OBJECT_NAME":"SL-14 R/B","OBJECT_ID":"1988-093B","EPOCH":"2026-04-02T07:31:14.705760","MEAN_MOTION":14.85685781,"ECCENTRICITY":0.00197317,"INCLINATION":82.5344,"RA_OF_ASC_NODE":19.8717,"ARG_OF_PERICENTER":323.7404,"MEAN_ANOMALY":155.0704,"EPHEMERIS_TYPE":0,"CLASSIFICATION_TYPE":"U","NORAD_CAT_ID":19574,"ELEMENT_SET_NO":999,"REV_AT_EPOCH":452,"BSTAR":8.4887358e-5,"MEAN_MOTION_DOT":7.62e-6,"MEAN_MOTION_DDOT":0},{"OBJECT_NAME":"SL-16 R/B","OBJECT_ID":"1988-102B","EPOCH":"2026-04-02T06:50:27.986496","MEAN_MOTION":14.16154152,"ECCENTRICITY":0.00152951,"INCLINATION":70.9969,"RA_OF_ASC_NODE":101.8488,"ARG_OF_PERICENTER":326.9128,"MEAN_ANOMALY":33.1037,"EPHEMERIS_TYPE":0,"CLASSIFICATION_TYPE":"U","NORAD_CAT_ID":19650,"ELEMENT_SET_NO":999,"REV_AT_EPOCH":93023,"BSTAR":0.00010529534,"MEAN_MOTION_DOT":1.61e-6,"MEAN_MOTION_DDOT":0},{"OBJECT_NAME":"INTERCOSMOS 24","OBJECT_ID":"1989-080A","EPOCH":"2026-04-02T05:38:37.754880","MEAN_MOTION":12.59587729,"ECCENTRICITY":0.11869586,"INCLINATION":82.6015,"RA_OF_ASC_NODE":89.0666,"ARG_OF_PERICENTER":238.1219,"MEAN_ANOMALY":109.903,"EPHEMERIS_TYPE":0,"CLASSIFICATION_TYPE":"U","NORAD_CAT_ID":20261,"ELEMENT_SET_NO":999,"REV_AT_EPOCH":66976,"BSTAR":0.00017459622,"MEAN_MOTION_DOT":5.92e-6,"MEAN_MOTION_DDOT":0},{"OBJECT_NAME":"SL-14 R/B","OBJECT_ID":"1989-080C","EPOCH":"2026-04-02T05:47:10.693536","MEAN_MOTION":12.50516526,"ECCENTRICITY":0.12309022,"INCLINATION":82.5948,"RA_OF_ASC_NODE":158.0739,"ARG_OF_PERICENTER":130.944,"MEAN_ANOMALY":240.4989,"EPHEMERIS_TYPE":0,"CLASSIFICATION_TYPE":"U","NORAD_CAT_ID":20262,"ELEMENT_SET_NO":999,"REV_AT_EPOCH":66309,"BSTAR":0.00014986374,"MEAN_MOTION_DOT":5.27e-6,"MEAN_MOTION_DDOT":0},{"OBJECT_NAME":"DELTA 1 R/B","OBJECT_ID":"1989-089B","EPOCH":"2026-04-02T06:42:14.974272","MEAN_MOTION":14.50683407,"ECCENTRICITY":0.007027,"INCLINATION":97.0687,"RA_OF_ASC_NODE":295.9625,"ARG_OF_PERICENTER":48.8822,"MEAN_ANOMALY":311.8414,"EPHEMERIS_TYPE":0,"CLASSIFICATION_TYPE":"U","NORAD_CAT_ID":20323,"ELEMENT_SET_NO":999,"REV_AT_EPOCH":89915,"BSTAR":0.00013409777,"MEAN_MOTION_DOT":5.09e-6,"MEAN_MOTION_DDOT":0},{"OBJECT_NAME":"ARIANE 40 R/B","OBJECT_ID":"1990-005H","EPOCH":"2026-04-02T03:53:53.246976","MEAN_MOTION":14.39886054,"ECCENTRICITY":0.00111717,"INCLINATION":98.3034,"RA_OF_ASC_NODE":152.1188,"ARG_OF_PERICENTER":130.6211,"MEAN_ANOMALY":229.5951,"EPHEMERIS_TYPE":0,"CLASSIFICATION_TYPE":"U","NORAD_CAT_ID":20443,"ELEMENT_SET_NO":999,"REV_AT_EPOCH":89618,"BSTAR":0.00011346089,"MEAN_MOTION_DOT":3.15e-6,"MEAN_MOTION_DDOT":0},{"OBJECT_NAME":"DELTA 2 R/B(1)","OBJECT_ID":"1990-008B","EPOCH":"2026-04-02T05:16:20.905824","MEAN_MOTION":15.5919698,"ECCENTRICITY":0.00767586,"INCLINATION":35.6041,"RA_OF_ASC_NODE":20.0724,"ARG_OF_PERICENTER":119.9553,"MEAN_ANOMALY":240.8831,"EPHEMERIS_TYPE":0,"CLASSIFICATION_TYPE":"U","NORAD_CAT_ID":20453,"ELEMENT_SET_NO":999,"REV_AT_EPOCH":92980,"BSTAR":0.0010169779,"MEAN_MOTION_DOT":0.00096092,"MEAN_MOTION_DDOT":0},{"OBJECT_NAME":"COSMOS 2058","OBJECT_ID":"1990-010A","EPOCH":"2026-04-02T06:47:42.342144","MEAN_MOTION":15.11551778,"ECCENTRICITY":0.00077766,"INCLINATION":82.4719,"RA_OF_ASC_NODE":24.1806,"ARG_OF_PERICENTER":247.5361,"MEAN_ANOMALY":112.5047,"EPHEMERIS_TYPE":0,"CLASSIFICATION_TYPE":"U","NORAD_CAT_ID":20465,"ELEMENT_SET_NO":999,"REV_AT_EPOCH":94580,"BSTAR":0.00039336089,"MEAN_MOTION_DOT":6.701e-5,"MEAN_MOTION_DDOT":0},{"OBJECT_NAME":"SL-14 R/B","OBJECT_ID":"1990-010B","EPOCH":"2026-04-02T03:47:45.985632","MEAN_MOTION":14.83592654,"ECCENTRICITY":0.0018858,"INCLINATION":82.5002,"RA_OF_ASC_NODE":245.3382,"ARG_OF_PERICENTER":219.257,"MEAN_ANOMALY":140.7279,"EPHEMERIS_TYPE":0,"CLASSIFICATION_TYPE":"U","NORAD_CAT_ID":20466,"ELEMENT_SET_NO":999,"REV_AT_EPOCH":93196,"BSTAR":8.9483257e-5,"MEAN_MOTION_DOT":7.63e-6,"MEAN_MOTION_DDOT":0},{"OBJECT_NAME":"SL-14 R/B","OBJECT_ID":"1990-018B","EPOCH":"2026-04-02T08:00:16.125408","MEAN_MOTION":14.82169332,"ECCENTRICITY":0.00165971,"INCLINATION":82.524,"RA_OF_ASC_NODE":200.9954,"ARG_OF_PERICENTER":19.2009,"MEAN_ANOMALY":340.9827,"EPHEMERIS_TYPE":0,"CLASSIFICATION_TYPE":"U","NORAD_CAT_ID":20511,"ELEMENT_SET_NO":999,"REV_AT_EPOCH":92608,"BSTAR":7.7151995e-5,"MEAN_MOTION_DOT":6.39e-6,"MEAN_MOTION_DDOT":0},{"OBJECT_NAME":"HST","OBJECT_ID":"1990-037B","EPOCH":"2026-04-02T02:29:19.876992","MEAN_MOTION":15.29860039,"ECCENTRICITY":0.0002043,"INCLINATION":28.4722,"RA_OF_ASC_NODE":240.2324,"ARG_OF_PERICENTER":36.1686,"MEAN_ANOMALY":323.9047,"EPHEMERIS_TYPE":0,"CLASSIFICATION_TYPE":"U","NORAD_CAT_ID":20580,"ELEMENT_SET_NO":999,"REV_AT_EPOCH":77690,"BSTAR":0.00029535357,"MEAN_MOTION_DOT":9.025e-5,"MEAN_MOTION_DDOT":0},{"OBJECT_NAME":"SL-16 R/B","OBJECT_ID":"1990-046B","EPOCH":"2026-04-02T04:00:16.977888","MEAN_MOTION":14.15018646,"ECCENTRICITY":0.0016491,"INCLINATION":70.9985,"RA_OF_ASC_NODE":248.6028,"ARG_OF_PERICENTER":269.1046,"MEAN_ANOMALY":90.8188,"EPHEMERIS_TYPE":0,"CLASSIFICATION_TYPE":"U","NORAD_CAT_ID":20625,"ELEMENT_SET_NO":999,"REV_AT_EPOCH":85171,"BSTAR":7.9686809e-5,"MEAN_MOTION_DOT":1.07e-6,"MEAN_MOTION_DDOT":0},{"OBJECT_NAME":"COSMOS 2084","OBJECT_ID":"1990-055A","EPOCH":"2026-04-01T10:26:03.373728","MEAN_MOTION":15.05783047,"ECCENTRICITY":0.00134228,"INCLINATION":62.7892,"RA_OF_ASC_NODE":257.9924,"ARG_OF_PERICENTER":197.557,"MEAN_ANOMALY":162.5069,"EPHEMERIS_TYPE":0,"CLASSIFICATION_TYPE":"U","NORAD_CAT_ID":20663,"ELEMENT_SET_NO":999,"REV_AT_EPOCH":93974,"BSTAR":0.000224484,"MEAN_MOTION_DOT":3.073e-5,"MEAN_MOTION_DDOT":0},{"OBJECT_NAME":"SL-6 R/B(2)","OBJECT_ID":"1990-055D","EPOCH":"2026-04-02T07:30:53.803872","MEAN_MOTION":15.03712295,"ECCENTRICITY":0.0028668,"INCLINATION":62.7833,"RA_OF_ASC_NODE":173.5087,"ARG_OF_PERICENTER":352.3269,"MEAN_ANOMALY":7.7387,"EPHEMERIS_TYPE":0,"CLASSIFICATION_TYPE":"U","NORAD_CAT_ID":20666,"ELEMENT_SET_NO":999,"REV_AT_EPOCH":94174,"BSTAR":0.00021692827,"MEAN_MOTION_DOT":2.813e-5,"MEAN_MOTION_DDOT":0},{"OBJECT_NAME":"SL-8 R/B","OBJECT_ID":"1990-078B","EPOCH":"2026-04-02T02:07:33.616992","MEAN_MOTION":14.89749464,"ECCENTRICITY":0.03578238,"INCLINATION":82.9036,"RA_OF_ASC_NODE":230.2523,"ARG_OF_PERICENTER":295.0357,"MEAN_ANOMALY":61.4107,"EPHEMERIS_TYPE":0,"CLASSIFICATION_TYPE":"U","NORAD_CAT_ID":20775,"ELEMENT_SET_NO":999,"REV_AT_EPOCH":81278,"BSTAR":0.00036793589,"MEAN_MOTION_DOT":0.00012417,"MEAN_MOTION_DDOT":0}]
