SL-8 R/B                
1 19257U 88053B   26092.30306165  .00000368  00000+0  12765-3 0  9991
2 19257  74.0465  68.9354 0021413 245.0499 218.8143 14.38932565979997
COSMOS 1975             
1 19573U 88093A   26092.03476715  .00007495  00000+0  26924-3 0  9995
2 19573  82.5154  94.2382 0013425  89.7555 270.5222 15.28398490 22973
SL-14 R/B               
1 19574U 88093B   26092.31336465  .00000762  00000+0  84887-4 0  9997
2 19574  82.5344  19.8717 0019731 323.7404 155.0704 14.85685781  4527
SL-16 R/B               
1 19650U 88102B   26092.28504614  .00000161  00000+0  10530-3 0  9998
2 19650  70.9969 101.8488 0015295 326.9128  33.1037 14.16154152930230
INTERCOSMOS 24          
1 20261U 89080A   26092.23515920  .00000592  00000+0  17460-3 0  9998
2 20261  82.6015  89.0666 1186958 238.1219 109.9030 12.59587729669765
SL-14 R/B               
1 20262U 89080C   26092.24109599  .00000527  00000+0  14986-3 0  9999
2 20262  82.5948 158.0739 1230902 130.9440 240.4989 12.50516526663094
DELTA 1 R/B             
1 20323U 89089B   26092.27933998  .00000509  00000+0  13410-3 0  9998
2 20323  97.0687 295.9625 0070270  48.8822 311.8414 14.50683407899157
ARIANE 40 R/B           
1 20443U 90005H   26092.16242184  .00000315  00000+0  11346-3 0  9990
2 20443  98.3034 152.1188 0011171 130.6211 229.5951 14.39886054896186
DELTA 2 R/B(1)          
1 20453U 90008B   26092.21968641  .00096092  00000+0  10170-2 0  9993
2 20453  35.6041  20.0724 0076758 119.9553 240.8831 15.59196980929803
COSMOS 2058             
1 20465U 90010A   26092.28312896  .00006701  00000+0  39336-3 0  9995
2 20465  82.4719  24.1806 0007776 247.5361 112.5047 15.11551778945803
SL-14 R/B               
1 20466U 90010B   26092.15817113  .00000763  00000+0  89483-4 0  9995
2 20466  82.5002 245.3382 0018858 219.2570 140.7279 14.83592654931965
SL-14 R/B               
1 20511U 90018B   26092.33351997  .00000639  00000+0  77152-4 0  9999
2 20511  82.5240 200.9954 0016597  19.2009 340.9827 14.82169332926087
HST                     
1 20580U 90037B   26092.10370228  .00009025  00000+0  29535-3 0  9998
2 20580  28.4722 240.2324 0002043  36.1686 323.9047 15.29860039776908
SL-16 R/B               
1 20625U 90046B   26092.16686317  .00000107  00000+0  79687-4 0  9999
2 20625  70.9985 248.6028 0016491 269.1046  90.8188 14.15018646851716
COSMOS 2084             
1 20663U 90055A   26091.43476127  .00003073  00000+0  22448-3 0  9993
2 20663  62.7892 257.9924 0013422 197.5570 162.5069 15.05783047939748
SL-6 R/B(2)             
1 20666U 90055D   26092.31312273  .00002813  00000+0  21693-3 0  9997
2 20666  62.7833 173.5087 0028668 352.3269   7.7387 15.03712295941744
SL-8 R/B                
1 20775U 90078B   26092.08858353  .00012417  00000+0  36794-3 0  9990
2 20775  82.9036 230.2523 0357823 295.0357  61.4107 14.89749464812788
